OBJECT_NAME,OBJECT_ID,EPOCH,MEAN_MOTION,ECCENTRICITY,INCLINATION,RA_OF_ASC_NODE,ARG_OF_PERICENTER,MEAN_ANOMALY,EPHEMERIS_TYPE,CLASSIFICATION_TYPE,NORAD_CAT_ID,ELEMENT_SET_NO,REV_AT_EPOCH,BSTAR,MEAN_MOTION_DOT,MEAN_MOTION_DDOT
SPROUT,2014-029E,2024-07-08T03:34:59.583072,15.56634898,.0004373,98.0064,345.1327,238.9936,121.0888,0,U,39770,999,55090,.31763E-2,.232408E-2,0
HODOYOSHI-4,2014-033B,2024-07-07T20:43:09.834528,14.84356536,.0026401,97.5801,38.5394,129.6366,230.7185,0,U,40011,999,54343,.25539E-3,.2107E-4,0
UNISAT-6,2014-033C,2024-07-08T04:00:17.496288,14.80069693,.0051484,97.7052,351.7399,235.9063,123.7259,0,U,40012,999,54094,.43826E-3,.3344E-4,0
DEIMOS-2,2014-033D,2024-07-08T03:45:06.274368,14.88937764,.000202,97.6786,76.1976,111.9330,248.2103,0,U,40013,999,54488,.26184E-3,.2406E-4,0
BUGSAT-1 (TITA),2014-033E,2024-07-08T03:51:01.686816,15.04301444,.0036448,98.1231,232.8221,65.3060,295.1952,0,U,40014,999,54880,.37142E-3,.518E-4,0
SAUDISAT 4,2014-033G,2024-07-08T04:37:52.569120,14.77225110,.0045876,97.6681,354.9595,219.0619,140.7277,0,U,40016,999,54132,.15559E-3,.1071E-4,0
APRIZESAT 9,2014-033J,2024-07-07T22:06:58.909824,14.71993996,.0067922,97.8060,334.7289,321.3240,38.3115,0,U,40018,999,53925,.13103E-3,.801E-5,0
BRITE-CA1 (TORONTO),2014-033L,2024-07-08T03:06:08.943552,14.69528199,.0083498,97.8803,326.5178,26.1996,334.3398,0,U,40020,999,53805,.20945E-3,.1259E-4,0
DUCHIFAT-1,2014-033M,2024-07-08T04:49:24.699648,15.07873617,.001365,98.0900,175.1206,39.4753,320.7465,0,U,40021,999,54729,.78816E-3,.12052E-3,0
NANOSATC-BR1,2014-033Q,2024-07-07T20:07:10.522272,15.03800425,.0008786,98.0640,162.8064,100.3116,259.9099,0,U,40024,999,54687,.63768E-3,.871E-4,0
QB50P1,2014-033R,2024-07-08T03:56:55.768704,15.00077301,.0014941,98.0389,151.6085,93.9927,266.3003,0,U,40025,999,54653,.56298E-3,.697E-4,0
DTUSAT-2,2014-033W,2024-07-07T20:23:02.854176,14.98729144,.0011026,98.0084,142.8430,84.1178,276.1300,0,U,40030,999,54630,.48075E-3,.573E-4,0
FLOCK 1C-4,2014-033X,2024-07-07T22:13:25.642272,15.08122568,.0008232,98.0754,167.5041,60.1149,300.0894,0,U,40031,999,54684,.75267E-3,.11569E-3,0
QB50P2,2014-033Y,2024-07-07T10:00:31.058496,14.98766275,.0012346,98.0071,142.4039,91.1823,269.0814,0,U,40032,999,54570,.53948E-3,.6447E-4,0
PERSEUS-M1,2014-033AF,2024-07-08T01:35:53.680128,14.90376799,.0014315,97.9069,116.9286,122.2410,238.0197,0,U,40039,999,54530,.26855E-3,.2562E-4,0
POLYITAN-1,2014-033AJ,2024-07-07T11:05:11.614272,15.02978315,.0014457,98.0686,154.5817,68.0527,292.2232,0,U,40042,999,54588,.79583E-3,.10669E-3,0
TIGRISAT,2014-033AK,2024-07-07T12:04:23.145024,14.79060012,.0054122,97.6971,351.3570,236.5242,123.0790,0,U,40043,999,54076,.36576E-3,.2721E-4,0
AISAT,2014-034B,2024-07-07T12:54:45.879264,14.89376132,.0011004,98.3350,45.9867,60.0410,300.1896,0,U,40054,999,54084,.75068E-3,.7078E-4,0
CANX-4,2014-034C,2024-07-07T12:00:00.976320,14.78163692,.0014454,98.3924,25.0960,123.6229,236.6361,0,U,40055,999,53958,.23755E-3,.1667E-4,0
CANX-5,2014-034D,2024-07-07T12:07:16.603392,14.78173021,.0014459,98.3927,25.1057,123.8179,236.4409,0,U,40056,999,53036,.23598E-3,.1656E-4,0
VELOX-I,2014-034E,2024-07-07T20:19:33.678048,14.86279695,.0010419,98.3396,46.0097,77.8112,282.4269,0,U,40057,999,54077,.51291E-3,.4459E-4,0
GONETS-M 10,2014-036C,2024-07-07T22:00:07.522272,12.42914642,.0020898,82.5103,28.1856,249.1471,110.7371,0,U,40063,999,45433,.12557E-3,.27E-6,0
METEOR-M 2,2014-037A,2024-07-08T05:24:03.718656,14.20991466,.0004702,98.4367,183.5232,305.4188,54.6550,0,U,40069,999,51861,.10195E-3,.179E-5,0
DX1,2014-037C,2024-07-08T02:39:46.741824,14.84998032,.0009201,98.3328,103.5480,60.7837,299.4295,0,U,40071,999,54074,.28973E-3,.2413E-4,0
UKUBE-1,2014-037F,2024-07-07T18:19:12.660672,14.94206020,.0004698,98.3432,120.9563,32.0913,328.0590,0,U,40074,999,54185,.74413E-3,.7917E-4,0
GAOFEN-2,2014-049A,2024-07-08T03:46:27.865344,14.80834328,.0009961,98.1109,240.2130,14.1637,345.9852,0,U,40118,999,53433,.20987E-3,.1566E-4,0
BRITE-PL2 (HEWELIUSZ),2014-049B,2024-07-07T07:27:43.801632,14.89015312,.0014491,97.8847,288.8889,300.4169,59.5615,0,U,40119,999,53557,.25228E-3,.2322E-4,0
HODOYOSHI-1,2014-070B,2024-07-08T04:16:39.120384,15.49428281,.0005292,97.1369,250.0580,324.3211,35.7686,0,U,40299,999,53837,.43391E-3,.23792E-3,0
CBERS 4,2014-079A,2024-07-08T04:03:20.694528,14.35496707,.0000671,98.3996,257.9532,91.4995,268.6268,0,U,40336,999,50225,.86767E-4,.207E-5,0
SMAP,2015-003A,2024-07-07T14:37:47.995392,14.63375623,.0001317,98.1272,195.7111,86.8388,273.2965,0,U,40376,999,50384,.16508E-3,.806E-5,0
GONETS-M 11,2015-020A,2024-07-07T13:59:47.613408,12.42870629,.0017236,82.4859,113.1235,107.6001,252.6962,0,U,40552,999,42058,.13832E-3,.29E-6,0
