SPROUT                  
1 39770U 14029E   24190.14930073  .00232408  00000+0  31763-2 0  9995
2 39770  98.0064 345.1327 0004373 238.9936 121.0888 15.56634898550909
HODOYOSHI-4             
1 40011U 14033B   24189.86330827  .00002107  00000+0  25539-3 0  9994
2 40011  97.5801  38.5394 0026401 129.6366 230.7185 14.84356536543436
UNISAT-6                
1 40012U 14033C   24190.16686917  .00003344  00000+0  43826-3 0  9997
2 40012  97.7052 351.7399 0051484 235.9063 123.7259 14.80069693540943
DEIMOS-2                
1 40013U 14033D   24190.15632262  .00002406  00000+0  26184-3 0  9997
2 40013  97.6786  76.1976 0002020 111.9330 248.2103 14.88937764544887
BUGSAT-1 (TITA)         
1 40014U 14033E   24190.16043619  .00005180  00000+0  37142-3 0  9999
2 40014  98.1231 232.8221 0036448  65.3060 295.1952 15.04301444548804
SAUDISAT 4              
1 40016U 14033G   24190.19296955  .00001071  00000+0  15559-3 0  9990
2 40016  97.6681 354.9595 0045876 219.0619 140.7277 14.77225110541321
APRIZESAT 9             
1 40018U 14033J   24189.92151516  .00000801  00000+0  13103-3 0  9997
2 40018  97.8060 334.7289 0067922 321.3240  38.3115 14.71993996539255
BRITE-CA1 (TORONTO)     
1 40020U 14033L   24190.12927018  .00001259  00000+0  20945-3 0  9992
2 40020  97.8803 326.5178 0083498  26.1996 334.3398 14.69528199538058
DUCHIFAT-1              
1 40021U 14033M   24190.20098032  .00012052  00000+0  78816-3 0  9990
2 40021  98.0900 175.1206 0013650  39.4753 320.7465 15.07873617547292
NANOSATC-BR1            
1 40024U 14033Q   24189.83831623  .00008710  00000+0  63768-3 0  9997
2 40024  98.0640 162.8064 0008786 100.3116 259.9099 15.03800425546878
QB50P1                  
1 40025U 14033R   24190.16453436  .00006970  00000+0  56298-3 0  9994
2 40025  98.0389 151.6085 0014941  93.9927 266.3003 15.00077301546531
DTUSAT-2                
1 40030U 14033W   24189.84933859  .00005730  00000+0  48075-3 0  9992
2 40030  98.0084 142.8430 0011026  84.1178 276.1300 14.98729144546305
FLOCK 1C-4              
1 40031U 14033X   24189.92599123  .00011569  00000+0  75267-3 0  9994
2 40031  98.0754 167.5041 0008232  60.1149 300.0894 15.08122568546842
QB50P2                  
1 40032U 14033Y   24189.41702614  .00006447  00000+0  53948-3 0  9991
2 40032  98.0071 142.4039 0012346  91.1823 269.0814 14.98766275545705
PERSEUS-M1              
1 40039U 14033AF  24190.06659352  .00002562  00000+0  26855-3 0  9992
2 40039  97.9069 116.9286 0014315 122.2410 238.0197 14.90376799545309
POLYITAN-1              
1 40042U 14033AJ  24189.46193998  .00010669  00000+0  79583-3 0  9990
2 40042  98.0686 154.5817 0014457  68.0527 292.2232 15.02978315545882
TIGRISAT                
1 40043U 14033AK  24189.50304566  .00002721  00000+0  36576-3 0  9996
2 40043  97.6971 351.3570 0054122 236.5242 123.0790 14.79060012540768
AISAT                   
1 40054U 14034B   24189.53803101  .00007078  00000+0  75068-3 0  9990
2 40054  98.3350  45.9867 0011004  60.0410 300.1896 14.89376132540841
CANX-4                  
1 40055U 14034C   24189.50001130  .00001667  00000+0  23755-3 0  9994
2 40055  98.3924  25.0960 0014454 123.6229 236.6361 14.78163692539580
CANX-5                  
1 40056U 14034D   24189.50505328  .00001656  00000+0  23598-3 0  9996
2 40056  98.3927  25.1057 0014459 123.8179 236.4409 14.78173021530368
VELOX-I                 
1 40057U 14034E   24189.84691757  .00004459  00000+0  51291-3 0  9991
2 40057  98.3396  46.0097 0010419  77.8112 282.4269 14.86279695540776
GONETS-M 10             
1 40063U 14036C   24189.91675373  .00000027  00000+0  12557-3 0  9993
2 40063  82.5103  28.1856 0020898 249.1471 110.7371 12.42914642454333
METEOR-M 2              
1 40069U 14037A   24190.22504304  .00000179  00000+0  10195-3 0  9995
2 40069  98.4367 183.5232 0004702 305.4188  54.6550 14.20991466518612
DX1                     
1 40071U 14037C   24190.11095766  .00002413  00000+0  28973-3 0  9999
2 40071  98.3328 103.5480 0009201  60.7837 299.4295 14.84998032540749
UKUBE-1                 
1 40074U 14037F   24189.76334098  .00007917  00000+0  74413-3 0  9999
2 40074  98.3432 120.9563 0004698  32.0913 328.0590 14.94206020541855
GAOFEN-2                
1 40118U 14049A   24190.15726696  .00001566  00000+0  20987-3 0  9996
2 40118  98.1109 240.2130 0009961  14.1637 345.9852 14.80834328534338
BRITE-PL2 (HEWELIUSZ)   
1 40119U 14049B   24189.31092363  .00002322  00000+0  25228-3 0  9994
2 40119  97.8847 288.8889 0014491 300.4169  59.5615 14.89015312535573
HODOYOSHI-1             
1 40299U 14070B   24190.17823056  .00023792  00000+0  43391-3 0  9999
2 40299  97.1369 250.0580 0005292 324.3211  35.7686 15.49428281538370
CBERS 4                 
1 40336U 14079A   24190.16898952  .00000207  00000+0  86767-4 0  9997
2 40336  98.3996 257.9532 0000671  91.4995 268.6268 14.35496707502254
SMAP                    
1 40376U 15003A   24189.60958328  .00000806  00000+0  16508-3 0  9990
2 40376  98.1272 195.7111 0001317  86.8388 273.2965 14.63375623503843
GONETS-M 11             
1 40552U 15020A   24189.58318997  .00000029  00000+0  13832-3 0  9998
2 40552  82.4859 113.1235 0017236 107.6001 252.6962 12.42870629420586
